{
  "type": "FeatureCollection",
  "features": [
    {
      "type": "Feature",
      "properties": {
        "norad_id": 31533,
        "name": "FENGYUN 1C DEB",
        "group": "fengyun-1c-debris",
        "lat": -34.57322443868698,
        "lon": 50.331583094677406,
        "alt_km": 842.5194036399726,
        "timestamp": "2025-12-10T11:33:53.668107+00:00",
        "meta_object_name": "FENGYUN 1C DEB",
        "meta_object_id": "1999-025BXY",
        "meta_epoch": "2025-12-08T23:14:07.410912",
        "meta_mean_motion": 14.27615034,
        "meta_eccentricity": 0.0065835,
        "meta_inclination": 98.9608,
        "meta_ra_of_asc_node": 235.0227,
        "meta_arg_of_pericenter": 0.4131,
        "meta_mean_anomaly": 359.7092,
        "meta_ephemeris_type": 0,
        "meta_classification_type": "U",
        "meta_norad_cat_id": 31533,
        "meta_element_set_no": 999,
        "meta_rev_at_epoch": 66069,
        "meta_bstar": 0.00060688,
        "meta_mean_motion_dot": 1.483e-05,
        "meta_mean_motion_ddot": 0,
        "tle_line1": "1 31533U 99025BXY 25342.96814133  .00001483  00000+0  60688-3 0  9997",
        "tle_line2": "2 31533  98.9608 235.0227 0065835   0.4131 359.7092 14.27615034660699"
      },
      "geometry": {
        "type": "Point",
        "coordinates": [
          50.331583094677406,
          -34.57322443868698
        ]
      }
    },
    {
      "type": "Feature",
      "properties": {
        "norad_id": 31535,
        "name": "FENGYUN 1C DEB",
        "group": "fengyun-1c-debris",
        "lat": -6.9009131835497275,
        "lon": 13.60688052399798,
        "alt_km": 741.0028355250843,
        "timestamp": "2025-12-10T11:33:53.668117+00:00",
        "meta_object_name": "FENGYUN 1C DEB",
        "meta_object_id": "1999-025BYA",
        "meta_epoch": "2025-12-08T20:01:31.264032",
        "meta_mean_motion": 14.28309987,
        "meta_eccentricity": 0.00876599,
        "meta_inclination": 98.0348,
        "meta_ra_of_asc_node": 193.0693,
        "meta_arg_of_pericenter": 174.5726,
        "meta_mean_anomaly": 185.6428,
        "meta_ephemeris_type": 0,
        "meta_classification_type": "U",
        "meta_norad_cat_id": 31535,
        "meta_element_set_no": 999,
        "meta_rev_at_epoch": 71875,
        "meta_bstar": 0.0012494375,
        "meta_mean_motion_dot": 3.212e-05,
        "meta_mean_motion_ddot": 0,
        "tle_line1": "1 31535U 99025BYA 25342.83438963  .00003212  00000+0  12494-2 0  9991",
        "tle_line2": "2 31535  98.0348 193.0693 0087659 174.5726 185.6428 14.28309987718752"
      },
      "geometry": {
        "type": "Point",
        "coordinates": [
          13.60688052399798,
          -6.9009131835497275
        ]
      }
    },
    {
      "type": "Feature",
      "properties": {
        "norad_id": 31536,
        "name": "FENGYUN 1C DEB",
        "group": "fengyun-1c-debris",
        "lat": -4.908704587185701,
        "lon": 71.17611285332703,
        "alt_km": 538.6981868386893,
        "timestamp": "2025-12-10T11:33:53.668127+00:00",
        "meta_object_name": "FENGYUN 1C DEB",
        "meta_object_id": "1999-025BYB",
        "meta_epoch": "2025-12-09T11:36:52.353792",
        "meta_mean_motion": 14.54254862,
        "meta_eccentricity": 0.02944487,
        "meta_inclination": 98.2357,
        "meta_ra_of_asc_node": 250.9051,
        "meta_arg_of_pericenter": 154.7924,
        "meta_mean_anomaly": 206.7981,
        "meta_ephemeris_type": 0,
        "meta_classification_type": "U",
        "meta_norad_cat_id": 31536,
        "meta_element_set_no": 999,
        "meta_rev_at_epoch": 96210,
        "meta_bstar": 0.0011928693,
        "meta_mean_motion_dot": 9.011e-05,
        "meta_mean_motion_ddot": 0,
        "tle_line1": "1 31536U 99025BYB 25343.48393928  .00009011  00000+0  11929-2 0  9990",
        "tle_line2": "2 31536  98.2357 250.9051 0294448 154.7924 206.7981 14.54254862962101"
      },
      "geometry": {
        "type": "Point",
        "coordinates": [
          71.17611285332703,
          -4.908704587185701
        ]
      }
    },
    {
      "type": "Feature",
      "properties": {
        "norad_id": 31537,
        "name": "FENGYUN 1C DEB",
        "group": "fengyun-1c-debris",
        "lat": 65.9777756911103,
        "lon": -20.924338755126406,
        "alt_km": 1010.4877755426305,
        "timestamp": "2025-12-10T11:33:53.668137+00:00",
        "meta_object_name": "FENGYUN 1C DEB",
        "meta_object_id": "1999-025BYC",
        "meta_epoch": "2025-12-08T16:46:23.961216",
        "meta_mean_motion": 14.20228394,
        "meta_eccentricity": 0.03487435,
        "meta_inclination": 99.2959,
        "meta_ra_of_asc_node": 135.6379,
        "meta_arg_of_pericenter": 335.9541,
        "meta_mean_anomaly": 22.5681,
        "meta_ephemeris_type": 0,
        "meta_classification_type": "U",
        "meta_norad_cat_id": 31537,
        "meta_element_set_no": 999,
        "meta_rev_at_epoch": 93224,
        "meta_bstar": 0.0026860598,
        "meta_mean_motion_dot": 0.00010571,
        "meta_mean_motion_ddot": 0,
        "tle_line1": "1 31537U 99025BYC 25342.69888844  .00010571  00000+0  26861-2 0  9993",
        "tle_line2": "2 31537  99.2959 135.6379 0348743 335.9541  22.5681 14.20228394932246"
      },
      "geometry": {
        "type": "Point",
        "coordinates": [
          -20.924338755126406,
          65.9777756911103
        ]
      }
    },
    {
      "type": "Feature",
      "properties": {
        "norad_id": 31538,
        "name": "FENGYUN 1C DEB",
        "group": "fengyun-1c-debris",
        "lat": 35.849768883249595,
        "lon": -152.9728328877454,
        "alt_km": 572.5263803068801,
        "timestamp": "2025-12-10T11:33:53.668147+00:00",
        "meta_object_name": "FENGYUN 1C DEB",
        "meta_object_id": "1999-025BYD",
        "meta_epoch": "2025-11-18T21:37:36.814656",
        "meta_mean_motion": 14.96885168,
        "meta_eccentricity": 0.00235351,
        "meta_inclination": 98.2479,
        "meta_ra_of_asc_node": 190.2519,
        "meta_arg_of_pericenter": 356.6213,
        "meta_mean_anomaly": 3.4844,
        "meta_ephemeris_type": 0,
        "meta_classification_type": "U",
        "meta_norad_cat_id": 31538,
        "meta_element_set_no": 999,
        "meta_rev_at_epoch": 66646,
        "meta_bstar": 0.0047226763,
        "meta_mean_motion_dot": 0.00054817,
        "meta_mean_motion_ddot": 0,
        "tle_line1": "1 31538U 99025BYD 25322.90112054  .00054817  00000+0  47227-2 0  9999",
        "tle_line2": "2 31538  98.2479 190.2519 0023535 356.6213   3.4844 14.96885168666469"
      },
      "geometry": {
        "type": "Point",
        "coordinates": [
          -152.9728328877454,
          35.849768883249595
        ]
      }
    },
    {
      "type": "Feature",
      "properties": {
        "norad_id": 31540,
        "name": "FENGYUN 1C DEB",
        "group": "fengyun-1c-debris",
        "lat": 80.53867860465948,
        "lon": 36.86032527514249,
        "alt_km": 769.6207407477987,
        "timestamp": "2025-12-10T11:33:53.668156+00:00",
        "meta_object_name": "FENGYUN 1C DEB",
        "meta_object_id": "1999-025BYF",
        "meta_epoch": "2025-12-09T05:38:36.929760",
        "meta_mean_motion": 14.65331731,
        "meta_eccentricity": 0.0177015,
        "meta_inclination": 99.0575,
        "meta_ra_of_asc_node": 142.307,
        "meta_arg_of_pericenter": 311.8781,
        "meta_mean_anomaly": 46.743,
        "meta_ephemeris_type": 0,
        "meta_classification_type": "U",
        "meta_norad_cat_id": 31540,
        "meta_element_set_no": 999,
        "meta_rev_at_epoch": 98250,
        "meta_bstar": 0.0011276,
        "meta_mean_motion_dot": 7.611e-05,
        "meta_mean_motion_ddot": 0,
        "tle_line1": "1 31540U 99025BYF 25343.23514965  .00007611  00000+0  11276-2 0  9993",
        "tle_line2": "2 31540  99.0575 142.3070 0177015 311.8781  46.7430 14.65331731982509"
      },
      "geometry": {
        "type": "Point",
        "coordinates": [
          36.86032527514249,
          80.53867860465948
        ]
      }
    },
    {
      "type": "Feature",
      "properties": {
        "norad_id": 31541,
        "name": "FENGYUN 1C DEB",
        "group": "fengyun-1c-debris",
        "lat": -12.331060002877992,
        "lon": 128.64488948466223,
        "alt_km": 679.024132204675,
        "timestamp": "2025-12-10T11:33:53.668166+00:00",
        "meta_object_name": "FENGYUN 1C DEB",
        "meta_object_id": "1999-025BYG",
        "meta_epoch": "2025-12-10T03:26:48.844896",
        "meta_mean_motion": 14.6875522,
        "meta_eccentricity": 0.0078466,
        "meta_inclination": 98.9798,
        "meta_ra_of_asc_node": 126.2927,
        "meta_arg_of_pericenter": 248.2543,
        "meta_mean_anomaly": 111.0295,
        "meta_ephemeris_type": 0,
        "meta_classification_type": "U",
        "meta_norad_cat_id": 31541,
        "meta_element_set_no": 999,
        "meta_rev_at_epoch": 98385,
        "meta_bstar": 0.002126,
        "meta_mean_motion_dot": 0.00012948,
        "meta_mean_motion_ddot": 0,
        "tle_line1": "1 31541U 99025BYG 25344.14362089  .00012948  00000+0  21260-2 0  9996",
        "tle_line2": "2 31541  98.9798 126.2927 0078466 248.2543 111.0295 14.68755220983856"
      },
      "geometry": {
        "type": "Point",
        "coordinates": [
          128.64488948466223,
          -12.331060002877992
        ]
      }
    }
  ]
}